     3.04           N: GNSS NAV DATA    E: GALILEO          RINEX VERSION / TYPE
TPP                 Reference Data Shop 20260420 180428 UTC PGM / RUN BY / DATE 
                                                            COMMENT             
                                                            COMMENT             
                                                            COMMENT             
GAL     .2980E-07   .7451E-08  -.1788E-06   .0000E+00       IONOSPHERIC CORR    
GAUT   .0000000000E+00 -.888178420E-15 442368 2513          TIME SYSTEM CORR    
    18  2415     2                                          LEAP SECONDS        
                                                            END OF HEADER       
E25 2026 04 02 03 20 00  .219894573092E-04 -.142108547152E-13  .000000000000E+00
      .880000000000E+02  .153750000000E+03  .292869342041E-08  .707494653809E+00
      .717118382454E-05  .996056478471E-04  .941380858421E-05  .544061211205E+04
      .357600000000E+06 -.119209289551E-06  .649979903712E+00  .353902578354E-07
      .961995735441E+00  .140656250000E+03  .230458204401E+00 -.551487257372E-08
      .330728061866E-09  .257000000000E+03  .241200000000E+04  .000000000000E+00
      .312000000000E+01  .000000000000E+00  .931322574615E-09  .465661287308E-09
      .358268000000E+06  .000000000000E+00  .000000000000E+00  .000000000000E+00
E05 2026 04 02 03 20 00  .241030938923E-04  .279953837889E-11  .000000000000E+00
      .880000000000E+02 -.781250000000E+01  .374194158117E-08 -.261980513052E+01
     -.394880771637E-06  .322767300531E-03  .214762985706E-05  .544059821320E+04
      .357600000000E+06 -.484287738800E-07 -.145142764480E+01 -.409781932831E-07
      .967193224440E+00  .298093750000E+03 -.641017088866E+00 -.599453541075E-08
     -.714315468392E-10  .257000000000E+03  .241200000000E+04  .000000000000E+00
      .312000000000E+01  .000000000000E+00  .232830643654E-08  .186264514923E-08
      .358268000000E+06  .000000000000E+00  .000000000000E+00  .000000000000E+00
E16 2026 04 02 03 20 00 -.229312572628E-04 -.250111042988E-11  .000000000000E+00
      .880000000000E+02  .140875000000E+03  .286047629318E-08 -.139017337620E+01
      .651553273201E-05  .362380873412E-03  .991486012936E-05  .544061977577E+04
      .357600000000E+06 -.372529029846E-08  .646503119438E+00 -.745058059692E-07
      .963936840479E+00  .133687500000E+03  .306385782138E+01 -.552165857067E-08
      .262153776900E-09  .257000000000E+03  .241200000000E+04  .000000000000E+00
      .312000000000E+01  .000000000000E+00 -.279396772385E-08 -.419095158577E-08
      .358268000000E+06  .000000000000E+00  .000000000000E+00  .000000000000E+00
E08 2026 04 02 03 20 00 -.119741191156E-03 -.700595137459E-11  .000000000000E+00
      .880000000000E+02 -.981250000000E+01  .374337021211E-08  .158846902088E+01
     -.320374965668E-06  .404424266890E-03  .220537185669E-05  .544060324478E+04
      .357600000000E+06 -.745058059692E-08 -.144866063912E+01  .856816768646E-07
      .972942047764E+00  .299218750000E+03 -.135884539954E+00 -.602739392229E-08
     -.300012496725E-10  .257000000000E+03  .241200000000E+04  .000000000000E+00
      .312000000000E+01  .000000000000E+00 -.628642737865E-08 -.558793544769E-08
      .358268000000E+06  .000000000000E+00  .000000000000E+00  .000000000000E+00
E07 2026 04 02 03 20 00 -.545225921087E-04 -.240163444687E-11  .000000000000E+00
      .880000000000E+02 -.637500000000E+01  .381158733934E-08  .115557788440E+01
     -.212341547012E-06  .446052057668E-03  .200234353542E-05  .544060099983E+04
      .357600000000E+06  .521540641785E-07 -.145135348656E+01 -.372529029846E-07
      .967219267308E+00  .298843750000E+03 -.485371243763E+00 -.607953895148E-08
     -.700029159024E-10  .257000000000E+03  .241200000000E+04  .000000000000E+00
      .312000000000E+01  .000000000000E+00  .325962901115E-08  .395812094212E-08
      .358285000000E+06  .000000000000E+00  .000000000000E+00  .000000000000E+00
E09 2026 04 02 03 20 00 -.214047264308E-03 -.123634436022E-10 -.104083408559E-16
      .880000000000E+02 -.656250000000E+01  .366515266832E-08 -.225827499897E+01
     -.279396772385E-06  .456848763861E-03  .214576721191E-05  .544060317993E+04
      .357600000000E+06  .912696123123E-07 -.144860730698E+01 -.819563865662E-07
      .972969388240E+00  .298843750000E+03 -.213247742693E+00 -.602310802948E-08
     -.560737642688E-10  .257000000000E+03  .241200000000E+04  .000000000000E+00
      .312000000000E+01  .000000000000E+00 -.698491930962E-09 -.465661287308E-09
      .358285000000E+06  .000000000000E+00  .000000000000E+00  .000000000000E+00
E10 2026 04 02 03 20 00 -.782143964898E-03 -.271427325060E-11  .000000000000E+00
      .880000000000E+02 -.130031250000E+03  .230259591236E-08 -.104826228541E+01
     -.600516796112E-05  .178670277819E-03  .107195228338E-04  .544061254311E+04
      .357600000000E+06 -.223517417908E-07  .274733182638E+01  .167638063431E-07
      .998244231210E+00  .129781250000E+03  .104404663680E+01 -.523343227917E-08
     -.281083136812E-09  .257000000000E+03  .241200000000E+04  .000000000000E+00
      .312000000000E+01  .000000000000E+00 -.116415321827E-08 -.465661287308E-09
      .358285000000E+06  .000000000000E+00  .000000000000E+00  .000000000000E+00
E11 2026 04 02 03 20 00  .458709447412E-02  .127457155941E-09 -.173472347598E-17
      .880000000000E+02 -.129781250000E+03  .232223958774E-08 -.114275714684E+01
     -.592507421970E-05  .525216339156E-03  .106301158667E-04  .544061146355E+04
      .357600000000E+06  .745058059692E-08  .274900487509E+01  .186264514923E-07
      .995324290612E+00  .128500000000E+03  .711316670657E+00 -.525200448135E-08
     -.273225666660E-09  .257000000000E+03  .241200000000E+04  .000000000000E+00
      .312000000000E+01  .000000000000E+00 -.151339918375E-07 -.160653144121E-07
      .358285000000E+06  .000000000000E+00  .000000000000E+00  .000000000000E+00
E15 2026 04 02 03 20 00 -.247402116656E-03 -.287059265247E-11  .000000000000E+00
      .880000000000E+02 -.143312500000E+03  .230116728143E-08 -.242969758316E+01
     -.673346221447E-05  .352872069925E-03  .122785568237E-04  .544061664200E+04
      .357600000000E+06  .186264514923E-08  .274918679041E+01  .130385160446E-07
      .998380619063E+00  .956250000000E+02 -.322582743563E+00 -.524807574628E-08
     -.348943106310E-09  .257000000000E+03  .241200000000E+04  .000000000000E+00
      .312000000000E+01  .000000000000E+00  .465661287308E-08  .512227416039E-08
      .358285000000E+06  .000000000000E+00  .000000000000E+00  .000000000000E+00
E18 2026 04 02 03 20 00  .262286880752E-02  .425188773079E-10  .000000000000E+00
      .880000000000E+02  .247500000000E+02  .707886629177E-08 -.489130536536E-01
      .130012631416E-05  .165871043340E+00 -.149570405483E-05  .528931716156E+04
      .357600000000E+06  .252202153206E-05  .157442282757E+01  .166147947311E-05
      .854037207358E+00  .314000000000E+03  .307765727600E+01 -.100161314978E-07
     -.627168981248E-09  .257000000000E+03  .241200000000E+04  .000000000000E+00
      .312000000000E+01  .130000000000E+03 -.442378222942E-08 -.512227416039E-08
      .358275000000E+06  .000000000000E+00  .000000000000E+00  .000000000000E+00
E21 2026 04 02 03 20 00 -.732248066925E-03 -.274269496003E-11  .000000000000E+00
      .880000000000E+02  .157687500000E+03  .287011955200E-08  .265589189484E+01
      .746920704842E-05  .143995042890E-03  .109542161226E-04  .544062002373E+04
      .357600000000E+06 -.260770320892E-07  .649979597962E+00  .000000000000E+00
      .961988587623E+00  .105718750000E+03  .140151256980E+01 -.556344602557E-08
      .386444668400E-09  .257000000000E+03  .241200000000E+04  .000000000000E+00
      .312000000000E+01  .000000000000E+00  .465661287308E-09  .698491930962E-09
      .358285000000E+06  .000000000000E+00  .000000000000E+00  .000000000000E+00
E23 2026 04 02 03 20 00 -.302617554553E-04 -.133582034323E-11  .000000000000E+00
      .880000000000E+02  .138843750000E+03  .298762444655E-08  .121188042986E+01
      .653602182865E-05  .289197312668E-03  .100377947092E-04  .544061742592E+04
      .357600000000E+06  .353902578354E-07  .646628996225E+00  .186264514923E-08
      .963914415407E+00  .124656250000E+03  .205609712813E+01 -.558987569790E-08
      .357514891930E-09  .257000000000E+03  .241200000000E+04  .000000000000E+00
      .312000000000E+01  .000000000000E+00  .698491930962E-09  .209547579289E-08
      .358285000000E+06  .000000000000E+00  .000000000000E+00  .000000000000E+00
E29 2026 04 02 03 20 00 -.192937324755E-03 -.362376795238E-11  .000000000000E+00
      .880000000000E+02 -.234375000000E+01  .387659004696E-08  .135098447946E+01
     -.132247805595E-06  .677176285535E-04  .208243727684E-05  .544059630013E+04
      .357600000000E+06 -.447034835815E-07 -.145109334462E+01 -.111758708954E-07
      .960591996787E+00  .296406250000E+03 -.147584302340E+01 -.607811032055E-08
     -.503592405216E-10  .257000000000E+03  .241200000000E+04  .000000000000E+00
      .360000000000E+01  .000000000000E+00 -.465661287308E-08 -.419095158577E-08
      .358285000000E+06  .000000000000E+00  .000000000000E+00  .000000000000E+00
E30 2026 04 02 03 20 00 -.896728248335E-03 -.400603994421E-10  .000000000000E+00
      .880000000000E+02  .169343750000E+03  .302798327051E-08 -.178469138294E+01
      .766851007938E-05  .468834768981E-03  .102221965790E-04  .544062686730E+04
      .357600000000E+06  .651925802231E-07  .651810739836E+00  .167638063431E-07
      .959752286198E+00  .119562500000E+03  .111474001712E+01 -.568273670879E-08
      .357872049664E-09  .257000000000E+03  .241200000000E+04  .000000000000E+00
      .312000000000E+01  .000000000000E+00  .232830643654E-09  .232830643654E-09
      .358285000000E+06  .000000000000E+00  .000000000000E+00  .000000000000E+00
